STARLINK-35546          
1 66240U 25245G   25320.50002315 -.01985390  00000+0 -19617-1 0  9995
2 66240  53.1594  94.0214 0000941  83.2164 332.8102 15.68389617  3887
STARLINK-35497          
1 66241U 25245H   25320.50002315 -.02002395  00000+0 -19794-1 0  9998
2 66241  53.1596  94.0177 0001007  67.2887 350.6404 15.68406393  3835
STARLINK-35480          
1 66242U 25245J   25320.50002315 -.02008304  00000+0 -19856-1 0  9994
2 66242  53.1591  94.0069 0001104  63.1136   0.5627 15.68410806  3888
STARLINK-35495          
1 66243U 25245K   25320.50002315 -.01998734  00000+0 -19755-1 0  9997
2 66243  53.1595  94.0145 0001025  67.2304 352.6179 15.68402892  3881
STARLINK-35517          
1 66244U 25245L   25318.25002315  .00126983  00000+0  85863-3 0  9998
2 66244  53.1580 105.1456 0001353 115.9026 161.6914 15.74180424  3315
STARLINK-35503          
1 66245U 25245M   25320.50002315 -.02006396  00000+0 -19836-1 0  9994
2 66245  53.1593  94.0010 0001108  61.9289   3.6654 15.68409133  3838
STARLINK-35434          
1 66246U 25245N   25320.50002315 -.02007644  00000+0 -19848-1 0  9995
2 66246  53.1589  93.9961 0001112  61.0147   6.4954 15.68410460  3677
STARLINK-35481          
1 66247U 25245P   25320.50002315 -.02004898  00000+0 -19820-1 0  9994
2 66247  53.1596  93.9929 0001113  61.5779   7.8512 15.68407797  3884
STARLINK-35416          
1 66248U 25245Q   25320.50002315 -.02004695  00000+0 -19817-1 0  9996
2 66248  53.1593  93.9897 0001147  59.2722  12.0725 15.68408196  3838
STARLINK-35304          
1 66249U 25245R   25320.50002315 -.02000361  00000+0 -19771-1 0  9992
2 66249  53.1594  93.9771 0001114  62.9637  14.1330 15.68405581  3673
STARLINK-35338          
1 66250U 25245S   25320.50002315 -.02006120  00000+0 -19832-1 0  9991
2 66250  53.1590  93.9851 0001114  59.1796  14.0812 15.68409446  3784
STARLINK-35485          
1 66251U 25245T   25320.50002315 -.02000204  00000+0 -19769-1 0  9998
2 66251  53.1593  93.9808 0001093  61.7393  13.4405 15.68405423  3678
