CCSDS_OMM_VERS = 2.0
CREATION_DATE  = 
ORIGINATOR     = 

OBJECT_NAME    = STARLINK-35546
OBJECT_ID      = 2025-245G
CENTER_NAME    = EARTH
REF_FRAME      = TEME
TIME_SYSTEM    = UTC
MEAN_ELEMENT_THEORY = SGP/SGP4

EPOCH          = 2025-11-16T12:00:02.000160
MEAN_MOTION    = 15.68389617
ECCENTRICITY   = .0000941
INCLINATION    = 53.1594
RA_OF_ASC_NODE = 94.0214
ARG_OF_PERICENTER = 83.2164
MEAN_ANOMALY   = 332.8102

EPHEMERIS_TYPE = 0
CLASSIFICATION_TYPE = U
NORAD_CAT_ID   = 66240
ELEMENT_SET_NO = 999
REV_AT_EPOCH   = 388
BSTAR          = -.19617E-1
MEAN_MOTION_DOT = -.198539E-1
MEAN_MOTION_DDOT = 0

CCSDS_OMM_VERS = 2.0
CREATION_DATE  = 
ORIGINATOR     = 

OBJECT_NAME    = STARLINK-35497
OBJECT_ID      = 2025-245H
CENTER_NAME    = EARTH
REF_FRAME      = TEME
TIME_SYSTEM    = UTC
MEAN_ELEMENT_THEORY = SGP/SGP4

EPOCH          = 2025-11-16T12:00:02.000160
MEAN_MOTION    = 15.68406393
ECCENTRICITY   = .0001007
INCLINATION    = 53.1596
RA_OF_ASC_NODE = 94.0177
ARG_OF_PERICENTER = 67.2887
MEAN_ANOMALY   = 350.6404

EPHEMERIS_TYPE = 0
CLASSIFICATION_TYPE = U
NORAD_CAT_ID   = 66241
ELEMENT_SET_NO = 999
REV_AT_EPOCH   = 383
BSTAR          = -.19794E-1
MEAN_MOTION_DOT = -.2002395E-1
MEAN_MOTION_DDOT = 0

CCSDS_OMM_VERS = 2.0
CREATION_DATE  = 
ORIGINATOR     = 

OBJECT_NAME    = STARLINK-35480
OBJECT_ID      = 2025-245J
CENTER_NAME    = EARTH
REF_FRAME      = TEME
TIME_SYSTEM    = UTC
MEAN_ELEMENT_THEORY = SGP/SGP4

EPOCH          = 2025-11-16T12:00:02.000160
MEAN_MOTION    = 15.68410806
ECCENTRICITY   = .0001104
INCLINATION    = 53.1591
RA_OF_ASC_NODE = 94.0069
ARG_OF_PERICENTER = 63.1136
MEAN_ANOMALY   = 0.5627

EPHEMERIS_TYPE = 0
CLASSIFICATION_TYPE = U
NORAD_CAT_ID   = 66242
ELEMENT_SET_NO = 999
REV_AT_EPOCH   = 388
BSTAR          = -.19856E-1
MEAN_MOTION_DOT = -.2008304E-1
MEAN_MOTION_DDOT = 0

CCSDS_OMM_VERS = 2.0
CREATION_DATE  = 
ORIGINATOR     = 

OBJECT_NAME    = STARLINK-35495
OBJECT_ID      = 2025-245K
CENTER_NAME    = EARTH
REF_FRAME      = TEME
TIME_SYSTEM    = UTC
MEAN_ELEMENT_THEORY = SGP/SGP4

EPOCH          = 2025-11-16T12:00:02.000160
MEAN_MOTION    = 15.68402892
ECCENTRICITY   = .0001025
INCLINATION    = 53.1595
RA_OF_ASC_NODE = 94.0145
ARG_OF_PERICENTER = 67.2304
MEAN_ANOMALY   = 352.6179

EPHEMERIS_TYPE = 0
CLASSIFICATION_TYPE = U
NORAD_CAT_ID   = 66243
ELEMENT_SET_NO = 999
REV_AT_EPOCH   = 388
BSTAR          = -.19755E-1
MEAN_MOTION_DOT = -.1998734E-1
MEAN_MOTION_DDOT = 0

CCSDS_OMM_VERS = 2.0
CREATION_DATE  = 
ORIGINATOR     = 

OBJECT_NAME    = STARLINK-35517
OBJECT_ID      = 2025-245L
CENTER_NAME    = EARTH
REF_FRAME      = TEME
TIME_SYSTEM    = UTC
MEAN_ELEMENT_THEORY = SGP/SGP4

EPOCH          = 2025-11-14T06:00:02.000160
MEAN_MOTION    = 15.74180424
ECCENTRICITY   = .00013535
INCLINATION    = 53.1580
RA_OF_ASC_NODE = 105.1456
ARG_OF_PERICENTER = 115.9026
MEAN_ANOMALY   = 161.6914

EPHEMERIS_TYPE = 0
CLASSIFICATION_TYPE = U
NORAD_CAT_ID   = 66244
ELEMENT_SET_NO = 999
REV_AT_EPOCH   = 331
BSTAR          = .85862529E-3
MEAN_MOTION_DOT = .126983E-2
MEAN_MOTION_DDOT = 0

CCSDS_OMM_VERS = 2.0
CREATION_DATE  = 
ORIGINATOR     = 

OBJECT_NAME    = STARLINK-35503
OBJECT_ID      = 2025-245M
CENTER_NAME    = EARTH
REF_FRAME      = TEME
TIME_SYSTEM    = UTC
MEAN_ELEMENT_THEORY = SGP/SGP4

EPOCH          = 2025-11-16T12:00:02.000160
MEAN_MOTION    = 15.68409133
ECCENTRICITY   = .0001108
INCLINATION    = 53.1593
RA_OF_ASC_NODE = 94.0010
ARG_OF_PERICENTER = 61.9289
MEAN_ANOMALY   = 3.6654

EPHEMERIS_TYPE = 0
CLASSIFICATION_TYPE = U
NORAD_CAT_ID   = 66245
ELEMENT_SET_NO = 999
REV_AT_EPOCH   = 383
BSTAR          = -.19836E-1
MEAN_MOTION_DOT = -.2006396E-1
MEAN_MOTION_DDOT = 0

CCSDS_OMM_VERS = 2.0
CREATION_DATE  = 
ORIGINATOR     = 

OBJECT_NAME    = STARLINK-35434
OBJECT_ID      = 2025-245N
CENTER_NAME    = EARTH
REF_FRAME      = TEME
TIME_SYSTEM    = UTC
MEAN_ELEMENT_THEORY = SGP/SGP4

EPOCH          = 2025-11-16T12:00:02.000160
MEAN_MOTION    = 15.68410460
ECCENTRICITY   = .0001112
INCLINATION    = 53.1589
RA_OF_ASC_NODE = 93.9961
ARG_OF_PERICENTER = 61.0147
MEAN_ANOMALY   = 6.4954

EPHEMERIS_TYPE = 0
CLASSIFICATION_TYPE = U
NORAD_CAT_ID   = 66246
ELEMENT_SET_NO = 999
REV_AT_EPOCH   = 367
BSTAR          = -.19848E-1
MEAN_MOTION_DOT = -.2007644E-1
MEAN_MOTION_DDOT = 0

CCSDS_OMM_VERS = 2.0
CREATION_DATE  = 
ORIGINATOR     = 

OBJECT_NAME    = STARLINK-35481
OBJECT_ID      = 2025-245P
CENTER_NAME    = EARTH
REF_FRAME      = TEME
TIME_SYSTEM    = UTC
MEAN_ELEMENT_THEORY = SGP/SGP4

EPOCH          = 2025-11-16T12:00:02.000160
MEAN_MOTION    = 15.68407797
ECCENTRICITY   = .0001113
INCLINATION    = 53.1596
RA_OF_ASC_NODE = 93.9929
ARG_OF_PERICENTER = 61.5779
MEAN_ANOMALY   = 7.8512

EPHEMERIS_TYPE = 0
CLASSIFICATION_TYPE = U
NORAD_CAT_ID   = 66247
ELEMENT_SET_NO = 999
REV_AT_EPOCH   = 388
BSTAR          = -.1982E-1
MEAN_MOTION_DOT = -.2004898E-1
MEAN_MOTION_DDOT = 0

CCSDS_OMM_VERS = 2.0
CREATION_DATE  = 
ORIGINATOR     = 

OBJECT_NAME    = STARLINK-35416
OBJECT_ID      = 2025-245Q
CENTER_NAME    = EARTH
REF_FRAME      = TEME
TIME_SYSTEM    = UTC
MEAN_ELEMENT_THEORY = SGP/SGP4

EPOCH          = 2025-11-16T12:00:02.000160
MEAN_MOTION    = 15.68408196
ECCENTRICITY   = .0001147
INCLINATION    = 53.1593
RA_OF_ASC_NODE = 93.9897
ARG_OF_PERICENTER = 59.2722
MEAN_ANOMALY   = 12.0725

EPHEMERIS_TYPE = 0
CLASSIFICATION_TYPE = U
NORAD_CAT_ID   = 66248
ELEMENT_SET_NO = 999
REV_AT_EPOCH   = 383
BSTAR          = -.19817E-1
MEAN_MOTION_DOT = -.2004695E-1
MEAN_MOTION_DDOT = 0

CCSDS_OMM_VERS = 2.0
CREATION_DATE  = 
ORIGINATOR     = 

OBJECT_NAME    = STARLINK-35304
OBJECT_ID      = 2025-245R
CENTER_NAME    = EARTH
REF_FRAME      = TEME
TIME_SYSTEM    = UTC
MEAN_ELEMENT_THEORY = SGP/SGP4

EPOCH          = 2025-11-16T12:00:02.000160
MEAN_MOTION    = 15.68405581
ECCENTRICITY   = .0001114
INCLINATION    = 53.1594
RA_OF_ASC_NODE = 93.9771
ARG_OF_PERICENTER = 62.9637
MEAN_ANOMALY   = 14.1330

EPHEMERIS_TYPE = 0
CLASSIFICATION_TYPE = U
NORAD_CAT_ID   = 66249
ELEMENT_SET_NO = 999
REV_AT_EPOCH   = 367
BSTAR          = -.19771E-1
MEAN_MOTION_DOT = -.2000361E-1
MEAN_MOTION_DDOT = 0

CCSDS_OMM_VERS = 2.0
CREATION_DATE  = 
ORIGINATOR     = 

OBJECT_NAME    = STARLINK-35338
OBJECT_ID      = 2025-245S
CENTER_NAME    = EARTH
REF_FRAME      = TEME
TIME_SYSTEM    = UTC
MEAN_ELEMENT_THEORY = SGP/SGP4

EPOCH          = 2025-11-16T12:00:02.000160
MEAN_MOTION    = 15.68409446
ECCENTRICITY   = .0001114
INCLINATION    = 53.1590
RA_OF_ASC_NODE = 93.9851
ARG_OF_PERICENTER = 59.1796
MEAN_ANOMALY   = 14.0812

EPHEMERIS_TYPE = 0
CLASSIFICATION_TYPE = U
NORAD_CAT_ID   = 66250
ELEMENT_SET_NO = 999
REV_AT_EPOCH   = 378
BSTAR          = -.19832E-1
MEAN_MOTION_DOT = -.200612E-1
MEAN_MOTION_DDOT = 0

CCSDS_OMM_VERS = 2.0
CREATION_DATE  = 
ORIGINATOR     = 

OBJECT_NAME    = STARLINK-35485
OBJECT_ID      = 2025-245T
CENTER_NAME    = EARTH
REF_FRAME      = TEME
TIME_SYSTEM    = UTC
MEAN_ELEMENT_THEORY = SGP/SGP4

EPOCH          = 2025-11-16T12:00:02.000160
MEAN_MOTION    = 15.68405423
ECCENTRICITY   = .0001093
INCLINATION    = 53.1593
RA_OF_ASC_NODE = 93.9808
ARG_OF_PERICENTER = 61.7393
MEAN_ANOMALY   = 13.4405

EPHEMERIS_TYPE = 0
CLASSIFICATION_TYPE = U
NORAD_CAT_ID   = 66251
ELEMENT_SET_NO = 999
REV_AT_EPOCH   = 367
BSTAR          = -.19769E-1
MEAN_MOTION_DOT = -.2000204E-1
MEAN_MOTION_DDOT = 0

